OBJECT_NAME,OBJECT_ID,EPOCH,MEAN_MOTION,ECCENTRICITY,INCLINATION,RA_OF_ASC_NODE,ARG_OF_PERICENTER,MEAN_ANOMALY,EPHEMERIS_TYPE,CLASSIFICATION_TYPE,NORAD_CAT_ID,ELEMENT_SET_NO,REV_AT_EPOCH,BSTAR,MEAN_MOTION_DOT,MEAN_MOTION_DDOT
OSCAR 7 (AO-7),1974-089B,2026-06-09T15:41:38.979168,12.53697945,.00124912,101.9901,173.8218,144.1300,331.1494,0,U,7530,999,35957,.77263705E-4,-.34E-6,0
PHASE 3B (AO-10),1983-058B,2026-06-07T04:08:14.383680,2.05872980,.60142661,25.9048,221.2242,112.9115,319.2048,0,U,14129,999,29528,0,-.194E-5,0
UOSAT 2 (UO-11),1984-021B,2026-06-09T16:53:33.904896,14.90764911,.00069377,97.8054,126.3623,197.6780,162.4198,0,U,14781,999,25601,.12620655E-3,.1185E-4,0
LUSAT (LO-19),1990-005G,2026-06-09T18:52:31.360512,14.34120904,.00107389,98.8852,182.3880,224.0555,135.9773,0,U,20442,999,90133,.53174863E-4,.102E-5,0
EYESAT A (AO-27),1993-061C,2026-06-09T17:28:00.839136,14.30940308,.00094223,98.6880,228.1437,119.1340,241.0787,0,U,22825,999,70593,.47497551E-4,.8E-6,0
ITAMSAT (IO-26),1993-061D,2026-06-09T17:01:34.288032,14.31366945,.00100391,98.6830,228.0420,104.3802,255.8495,0,U,22826,999,70624,.470324E-4,.8E-6,0
RADIO ROSTO (RS15),1994-085A,2026-06-09T15:59:10.866336,11.27583629,.01557161,64.8186,315.3800,5.2666,354.9853,0,U,23439,999,29505,.17122438E-3,-.36E-6,0
JAS-2 (FO-29),1996-046B,2026-06-09T13:09:02.853216,13.53273773,.03507836,98.5247,10.4666,116.2031,247.5618,0,U,24278,999,47213,.29285361E-4,-.3E-7,0
TECHSAT 1B (GO-32),1998-043D,2026-06-09T16:31:58.532160,14.24426956,.00006248,99.0066,153.2585,182.3530,177.7645,0,U,25397,999,45026,.47068925E-4,.62E-6,0
ISS (ZARYA),1998-067A,2026-06-09T18:30:49.920768,15.49688427,.00068623,51.6331,336.7972,151.7869,208.3493,0,U,25544,999,57060,.1498737E-3,.8018E-4,0
PCSAT (NO-44),2001-043C,2026-06-09T18:08:12.279552,14.31953486,.00061039,67.0511,263.4926,264.2984,95.7422,0,U,26931,999,28938,.61593655E-4,.82E-6,0
SAUDISAT 1C (SO-50),2002-058C,2026-06-09T16:05:11.410944,14.83030513,.00754288,64.5504,152.2423,263.8699,95.3809,0,U,27607,999,26334,.13084659E-3,.963E-5,0
CUTE-1 (CO-55),2003-031E,2026-06-09T17:33:10.421568,14.24331147,.00090363,98.6735,169.3839,200.1395,159.9429,0,U,27844,999,19061,.13413721E-3,.266E-5,0
CUBESAT XI-IV (CO-57),2003-031J,2026-06-09T00:19:05.278656,14.23616414,.00085614,98.6766,168.3941,222.5153,137.5363,0,U,27848,999,19021,.11651716E-3,.222E-5,0
MOZHAETS 4 (RS22),2003-042A,2026-06-09T22:53:47.438592,14.73454888,.00101628,98.3475,345.1089,295.8916,168.0424,0,U,27939,999,21448,.15160768E-3,.93E-5,0
CUBESAT XI-V,2005-043F,2026-06-09T09:14:13.585344,14.72610450,.00131651,98.2976,315.8433,226.6554,133.3557,0,U,28895,999,10060,.21228388E-3,.13E-4,0
CUTE-1.7+APD II (CO-65),2008-021C,2026-06-09T19:46:39.055296,15.09383390,.00103361,97.8271,142.0896,60.4775,299.7482,0,U,32785,999,98408,.33311857E-3,.5261E-4,0
SEEDS II (CO-66),2008-021J,2026-06-09T05:39:09.737568,15.32477826,.0002294,97.7519,157.7552,29.0945,331.0423,0,U,32791,999,98607,.51422E-3,.1606E-3,0
YUBILEINY (RS30),2008-025A,2026-06-09T22:27:43.182144,12.43178885,.00191566,82.5050,359.9518,330.2390,29.7599,0,U,32953,999,81879,.14117737E-3,.29E-6,0
KKS-1 (KISEKI),2009-002H,2026-06-09T16:48:29.650752,14.83104968,.00069799,98.1192,83.0240,324.0977,35.9766,0,U,33499,999,93508,.16631678E-3,.1299E-4,0
SWISSCUBE,2009-051B,2026-06-09T17:04:01.608672,14.62467613,.00055621,98.4042,68.4691,230.1201,129.9511,0,U,35932,999,88806,.19187016E-3,.922E-5,0
BEESAT-1,2009-051C,2026-06-09T12:16:18.064416,14.61708260,.00039183,98.3972,67.9173,247.5852,112.4933,0,U,35933,999,88806,.16607004E-3,.778E-5,0
ITUPSAT1,2009-051E,2026-06-09T16:49:29.216640,14.60429700,.00061272,98.4055,67.3098,262.2059,97.8445,0,U,35935,999,88764,.15593604E-3,.707E-5,0
XIWANG-1 (HOPE-1),2009-072B,2026-06-09T22:45:04.385088,13.16437137,.00068036,100.4022,114.8955,249.7894,110.2487,0,U,36122,999,79205,-.10087061E-2,-.43E-5,0
O/OREOS (USA 219),2010-062C,2026-06-09T13:28:36.705216,14.93711838,.00123954,71.9704,97.6116,79.7659,280.4909,0,U,37224,999,11550,.21218611E-3,.2187E-4,0
JUGNU,2011-058B,2026-06-09T06:27:07.528032,14.13774628,.001855,19.9621,356.5333,349.0526,166.6651,0,U,37839,999,75790,.72297E-4,.405E-5,0
SRMSAT,2011-058D,2026-06-09T12:50:18.601728,14.11573956,.00119361,19.9710,105.7844,119.8301,40.8059,0,U,37841,999,75673,.52396644E-4,.362E-5,0
STRAND-1,2013-009E,2026-06-09T17:53:49.470144,14.37158906,.00074547,98.3921,341.1634,250.7154,109.3227,0,U,39090,999,69599,.10516554E-3,.27E-5,0
ZACUBE-1 (TSHEPISOSAT),2013-066B,2026-06-09T11:24:15.748128,15.01140367,.00400693,97.8090,122.7702,274.7996,84.8653,0,U,39417,999,67957,.23849308E-3,.3043E-4,0
GOMX-1,2013-066Q,2026-06-09T21:35:51.086112,14.69433394,.01301451,97.6494,1.8227,100.6723,260.9170,0,U,39430,999,66884,.30354029E-3,.1996E-4,0
