OSCAR 7 (AO-7)          
1 07530U 74089B   26160.65392337 -.00000034  00000+0  77264-4 0  9993
2 07530 101.9901 173.8218 0012491 144.1300 331.1494 12.53697945359573
PHASE 3B (AO-10)        
1 14129U 83058B   26158.17238870 -.00000194  00000+0  00000+0 0  9992
2 14129  25.9048 221.2242 6014266 112.9115 319.2048  2.05872980295281
UOSAT 2 (UO-11)         
1 14781U 84021B   26160.70386464  .00001185  00000+0  12621-3 0  9998
2 14781  97.8054 126.3623 0006937 197.6780 162.4198 14.90764911256019
LUSAT (LO-19)           
1 20442U 90005G   26160.78647408  .00000102  00000+0  53175-4 0  9992
2 20442  98.8852 182.3880 0010738 224.0555 135.9773 14.34120904901335
EYESAT A (AO-27)        
1 22825U 93061C   26160.72778749  .00000080  00000+0  47498-4 0  9997
2 22825  98.6880 228.1437 0009422 119.1340 241.0787 14.30940308705938
ITAMSAT (IO-26)         
1 22826U 93061D   26160.70942463  .00000080  00000+0  47032-4 0  9996
2 22826  98.6830 228.0420 0010039 104.3802 255.8495 14.31366945706244
RADIO ROSTO (RS15)      
1 23439U 94085A   26160.66609799 -.00000036  00000+0  17122-3 0  9999
2 23439  64.8186 315.3800 0155716   5.2666 354.9853 11.27583629295058
JAS-2 (FO-29)           
1 24278U 96046B   26160.54794969 -.00000003  00000+0  29285-4 0  9999
2 24278  98.5247  10.4666 0350783 116.2031 247.5618 13.53273773472134
TECHSAT 1B (GO-32)      
1 25397U 98043D   26160.68887190  .00000062  00000+0  47069-4 0  9999
2 25397  99.0066 153.2585 0000624 182.3530 177.7645 14.24426956450268
ISS (ZARYA)             
1 25544U 98067A   26160.77141112  .00008018  00000+0  14987-3 0  9997
2 25544  51.6331 336.7972 0006862 151.7869 208.3493 15.49688427570608
PCSAT (NO-44)           
1 26931U 01043C   26160.75569768  .00000082  00000+0  61594-4 0  9995
2 26931  67.0511 263.4926 0006103 264.2984  95.7422 14.31953486289383
SAUDISAT 1C (SO-50)     
1 27607U 02058C   26160.67027096  .00000963  00000+0  13085-3 0  9996
2 27607  64.5504 152.2423 0075428 263.8699  95.3809 14.83030513263346
CUTE-1 (CO-55)          
1 27844U 03031E   26160.73137062  .00000266  00000+0  13414-3 0  9995
2 27844  98.6735 169.3839 0009036 200.1395 159.9429 14.24331147190618
CUBESAT XI-IV (CO-57)   
1 27848U 03031J   26160.01325554  .00000222  00000+0  11652-3 0  9999
2 27848  98.6766 168.3941 0008561 222.5153 137.5363 14.23616414190218
MOZHAETS 4 (RS22)       
1 27939U 03042A   26160.95402128  .00000930  00000+0  15161-3 0  9993
2 27939  98.3475 345.1089 0010162 295.8916 168.0424 14.73454888214484
CUBESAT XI-V            
1 28895U 05043F   26160.38487946  .00001300  00000+0  21228-3 0  9999
2 28895  98.2976 315.8433 0013165 226.6554 133.3557 14.72610450100602
CUTE-1.7+APD II (CO-65) 
1 32785U 08021C   26160.82406314  .00005261  00000+0  33312-3 0  9997
2 32785  97.8271 142.0896 0010336  60.4775 299.7482 15.09383390984084
SEEDS II (CO-66)        
1 32791U 08021J   26160.23552937  .00016060  00000+0  51422-3 0  9993
2 32791  97.7519 157.7552 0002294  29.0945 331.0423 15.32477826986071
YUBILEINY (RS30)        
1 32953U 08025A   26160.93591646  .00000029  00000+0  14118-3 0  9993
2 32953  82.5050 359.9518 0019156 330.2390  29.7599 12.43178885818797
KKS-1 (KISEKI)          
1 33499U 09002H   26160.70034318  .00001299  00000+0  16632-3 0  9991
2 33499  98.1192  83.0240 0006979 324.0977  35.9766 14.83104968935085
SWISSCUBE               
1 35932U 09051B   26160.71112973  .00000922  00000+0  19187-3 0  9994
2 35932  98.4042  68.4691 0005562 230.1201 129.9511 14.62467613888060
BEESAT-1                
1 35933U 09051C   26160.51132019  .00000778  00000+0  16607-3 0  9999
2 35933  98.3972  67.9173 0003918 247.5852 112.4933 14.61708260888068
ITUPSAT1                
1 35935U 09051E   26160.70103260  .00000707  00000+0  15594-3 0  9994
2 35935  98.4055  67.3098 0006127 262.2059  97.8445 14.60429700887646
XIWANG-1 (HOPE-1)       
1 36122U 09072B   26160.94796742 -.00000430  00000+0 -10087-2 0  9991
2 36122 100.4022 114.8955 0006803 249.7894 110.2487 13.16437137792050
O/OREOS (USA 219)       
1 37224U 10062C   26160.56153594  .00002187  00000+0  21219-3 0  9995
2 37224  71.9704  97.6116 0012395  79.7659 280.4909 14.93711838115500
JUGNU                   
1 37839U 11058B   26160.26883713  .00000405  00000+0  72297-4 0  9997
2 37839  19.9621 356.5333 0018550 349.0526 166.6651 14.13774628757908
SRMSAT                  
1 37841U 11058D   26160.53493752  .00000362  00000+0  52397-4 0  9991
2 37841  19.9710 105.7844 0011936 119.8301  40.8059 14.11573956756730
STRAND-1                
1 39090U 13009E   26160.74571146  .00000270  00000+0  10517-3 0  9999
2 39090  98.3921 341.1634 0007454 250.7154 109.3227 14.37158906695997
ZACUBE-1 (TSHEPISOSAT)  
1 39417U 13066B   26160.47518227  .00003043  00000+0  23849-3 0  9999
2 39417  97.8090 122.7702 0040069 274.7996  84.8653 15.01140367679579
GOMX-1                  
1 39430U 13066Q   26160.89989683  .00001996  00000+0  30354-3 0  9992
2 39430  97.6494   1.8227 0130145 100.6723 260.9170 14.69433394668846
